{"type": "FeatureCollection", "features": [ {"type": "Feature", "properties": {"norad_id": 36073, "name": "COSMOS 2251 DEB", "group": "cosmos-2251-debris", "lat": 0.7282060173796996, "lon": -25.45167702510014, "alt_km": 765.5397846046853, "timestamp": "2025-12-06T07:31:40.632931+00:00", "meta": {"OBJECT_NAME": "COSMOS 2251 DEB", "OBJECT_ID": "1993-036AYL", "EPOCH": "2025-12-05T06:25:34.386240", "MEAN_MOTION": 14.34937473, "ECCENTRICITY": 0.00235373, "INCLINATION": 74.0317, "RA_OF_ASC_NODE": 336.2563, "ARG_OF_PERICENTER": 46.5076, "MEAN_ANOMALY": 313.8028, "EPHEMERIS_TYPE": 0, "CLASSIFICATION_TYPE": "U", "NORAD_CAT_ID": 36073, "ELEMENT_SET_NO": 999, "REV_AT_EPOCH": 70100, "BSTAR": 0.00039365555, "MEAN_MOTION_DOT": 1.097e-05, "MEAN_MOTION_DDOT": 0}, "tle": {"line1": "1 36073U 93036AYL 25339.26775910  .00001097  00000+0  39366-3 0  9995", "line2": "2 36073  74.0317 336.2563 0023537  46.5076 313.8028 14.34937473701007"}}, "geometry": {"type": "Point", "coordinates": [-25.45167702510014, 0.7282060173796996]}}, {"type": "Feature", "properties": {"norad_id": 36074, "name": "COSMOS 2251 DEB", "group": "cosmos-2251-debris", "lat": -60.398190045813486, "lon": -37.88461188951312, "alt_km": 778.9303593994991, "timestamp": "2025-12-06T07:31:40.632941+00:00", "meta": {"OBJECT_NAME": "COSMOS 2251 DEB", "OBJECT_ID": "1993-036AYM", "EPOCH": "2025-12-04T07:35:54.379968", "MEAN_MOTION": 14.43651509, "ECCENTRICITY": 0.0041318, "INCLINATION": 73.9929, "RA_OF_ASC_NODE": 356.1864, "ARG_OF_PERICENTER": 90.6412, "MEAN_ANOMALY": 269.9479, "EPHEMERIS_TYPE": 0, "CLASSIFICATION_TYPE": "U", "NORAD_CAT_ID": 36074, "ELEMENT_SET_NO": 999, "REV_AT_EPOCH": 85788, "BSTAR": 0.0017767, "MEAN_MOTION_DOT": 6.071e-05, "MEAN_MOTION_DDOT": 0}, "tle": {"line1": "1 36074U 93036AYM 25338.31660162  .00006071  00000+0  17767-2 0  9990", "line2": "2 36074  73.9929 356.1864 0041318  90.6412 269.9479 14.43651509857883"}}, "geometry": {"type": "Point", "coordinates": [-37.88461188951312, -60.398190045813486]}}, {"type": "Feature", "properties": {"norad_id": 36366, "name": "COSMOS 2251 DEB", "group": "cosmos-2251-debris", "lat": 64.43424340227118, "lon": 68.12639977108422, "alt_km": 833.7611904008545, "timestamp": "2025-12-06T07:31:40.632951+00:00", "meta": {"OBJECT_NAME": "COSMOS 2251 DEB", "OBJECT_ID": "1993-036AYT", "EPOCH": "2025-12-02T05:51:07.218720", "MEAN_MOTION": 14.33192884, "ECCENTRICITY": 0.0091167, "INCLINATION": 74.0653, "RA_OF_ASC_NODE": 292.2194, "ARG_OF_PERICENTER": 322.5756, "MEAN_ANOMALY": 36.9067, "EPHEMERIS_TYPE": 0, "CLASSIFICATION_TYPE": "U", "NORAD_CAT_ID": 36366, "ELEMENT_SET_NO": 999, "REV_AT_EPOCH": 86138, "BSTAR": 0.0027816, "MEAN_MOTION_DOT": 7.987e-05, "MEAN_MOTION_DDOT": 0}, "tle": {"line1": "1 36366U 93036AYT 25336.24383355  .00007987  00000+0  27816-2 0  9993", "line2": "2 36366  74.0653 292.2194 0091167 322.5756  36.9067 14.33192884861384"}}, "geometry": {"type": "Point", "coordinates": [68.12639977108422, 64.43424340227118]}}, {"type": "Feature", "properties": {"norad_id": 36367, "name": "COSMOS 2251 DEB", "group": "cosmos-2251-debris", "lat": 25.94622729183541, "lon": 54.288950687955705, "alt_km": 1124.571672964721, "timestamp": "2025-12-06T07:31:40.632961+00:00", "meta": {"OBJECT_NAME": "COSMOS 2251 DEB", "OBJECT_ID": "1993-036AYU", "EPOCH": "2025-12-04T11:28:53.471424", "MEAN_MOTION": 13.86261644, "ECCENTRICITY": 0.0262731, "INCLINATION": 74.1015, "RA_OF_ASC_NODE": 245.3541, "ARG_OF_PERICENTER": 320.0579, "MEAN_ANOMALY": 38.1471, "EPHEMERIS_TYPE": 0, "CLASSIFICATION_TYPE": "U", "NORAD_CAT_ID": 36367, "ELEMENT_SET_NO": 999, "REV_AT_EPOCH": 57415, "BSTAR": 0.0029476, "MEAN_MOTION_DOT": 4.444e-05, "MEAN_MOTION_DDOT": 0}, "tle": {"line1": "1 36367U 93036AYU 25338.47839666  .00004444  00000+0  29476-2 0  9991", "line2": "2 36367  74.1015 245.3541 0262731 320.0579  38.1471 13.86261644574153"}}, "geometry": {"type": "Point", "coordinates": [54.288950687955705, 25.94622729183541]}}, {"type": "Feature", "properties": {"norad_id": 36369, "name": "COSMOS 2251 DEB", "group": "cosmos-2251-debris", "lat": 71.6950612338328, "lon": -156.6944347451363, "alt_km": 639.5279520448967, "timestamp": "2025-12-06T07:31:40.632971+00:00", "meta": {"OBJECT_NAME": "COSMOS 2251 DEB", "OBJECT_ID": "1993-036AYW", "EPOCH": "2025-12-03T00:51:19.677888", "MEAN_MOTION": 14.73251105, "ECCENTRICITY": 0.00123913, "INCLINATION": 74.0302, "RA_OF_ASC_NODE": 89.6499, "ARG_OF_PERICENTER": 171.9331, "MEAN_ANOMALY": 188.2043, "EPHEMERIS_TYPE": 0, "CLASSIFICATION_TYPE": "U", "NORAD_CAT_ID": 36369, "ELEMENT_SET_NO": 999, "REV_AT_EPOCH": 85779, "BSTAR": 0.0024127468, "MEAN_MOTION_DOT": 0.00015612, "MEAN_MOTION_DDOT": 0}, "tle": {"line1": "1 36369U 93036AYW 25337.03564442  .00015612  00000+0  24127-2 0  9998", "line2": "2 36369  74.0302  89.6499 0012391 171.9331 188.2043 14.73251105857792"}}, "geometry": {"type": "Point", "coordinates": [-156.6944347451363, 71.6950612338328]}}, {"type": "Feature", "properties": {"norad_id": 36371, "name": "COSMOS 2251 DEB", "group": "cosmos-2251-debris", "lat": 70.14136238037614, "lon": -133.43955935464902, "alt_km": 657.7439563401349, "timestamp": "2025-12-06T07:31:40.632981+00:00", "meta": {"OBJECT_NAME": "COSMOS 2251 DEB", "OBJECT_ID": "1993-036AYY", "EPOCH": "2025-12-05T06:40:48.082656", "MEAN_MOTION": 14.70365383, "ECCENTRICITY": 0.00103962, "INCLINATION": 74.0126, "RA_OF_ASC_NODE": 176.0302, "ARG_OF_PERICENTER": 214.7515, "MEAN_ANOMALY": 145.2978, "EPHEMERIS_TYPE": 0, "CLASSIFICATION_TYPE": "U", "NORAD_CAT_ID": 36371, "ELEMENT_SET_NO": 999, "REV_AT_EPOCH": 71335, "BSTAR": 0.003178426, "MEAN_MOTION_DOT": 0.00019262, "MEAN_MOTION_DDOT": 0}, "tle": {"line1": "1 36371U 93036AYY 25339.27833429  .00019262  00000+0  31784-2 0  9995", "line2": "2 36371  74.0126 176.0302 0010396 214.7515 145.2978 14.70365383713350"}}, "geometry": {"type": "Point", "coordinates": [-133.43955935464902, 70.14136238037614]}}, {"type": "Feature", "properties": {"norad_id": 36379, "name": "COSMOS 2251 DEB", "group": "cosmos-2251-debris", "lat": -41.935274948600835, "lon": -56.28474150286206, "alt_km": 799.6339115990668, "timestamp": "2025-12-06T07:31:40.632991+00:00", "meta": {"OBJECT_NAME": "COSMOS 2251 DEB", "OBJECT_ID": "1993-036AZG", "EPOCH": "2025-12-04T05:40:14.039904", "MEAN_MOTION": 14.36055986, "ECCENTRICITY": 0.0044512, "INCLINATION": 74.012, "RA_OF_ASC_NODE": 322.459, "ARG_OF_PERICENTER": 93.9116, "MEAN_ANOMALY": 287.0912, "EPHEMERIS_TYPE": 0, "CLASSIFICATION_TYPE": "U", "NORAD_CAT_ID": 36379, "ELEMENT_SET_NO": 999, "REV_AT_EPOCH": 64706, "BSTAR": 0.00051818, "MEAN_MOTION_DOT": 1.499e-05, "MEAN_MOTION_DDOT": 0}, "tle": {"line1": "1 36379U 93036AZG 25338.23627361  .00001499  00000+0  51818-3 0  9998", "line2": "2 36379  74.0120 322.4590 0044512  93.9116 287.0912 14.36055986647063"}}, "geometry": {"type": "Point", "coordinates": [-56.28474150286206, -41.935274948600835]}}, {"type": "Feature", "properties": {"norad_id": 36385, "name": "COSMOS 2251 DEB", "group": "cosmos-2251-debris", "lat": 32.039576403114026, "lon": -23.262788216880075, "alt_km": 746.3177550694336, "timestamp": "2025-12-06T07:31:40.633002+00:00", "meta": {"OBJECT_NAME": "COSMOS 2251 DEB", "OBJECT_ID": "1993-036AZN", "EPOCH": "2025-12-02T19:41:49.805376", "MEAN_MOTION": 14.72268382, "ECCENTRICITY": 0.01411536, "INCLINATION": 73.969, "RA_OF_ASC_NODE": 173.928, "ARG_OF_PERICENTER": 350.6385, "MEAN_ANOMALY": 9.2157, "EPHEMERIS_TYPE": 0, "CLASSIFICATION_TYPE": "U", "NORAD_CAT_ID": 36385, "ELEMENT_SET_NO": 999, "REV_AT_EPOCH": 84956, "BSTAR": 0.0016407111, "MEAN_MOTION_DOT": 0.00012116, "MEAN_MOTION_DDOT": 0}, "tle": {"line1": "1 36385U 93036AZN 25336.82071534  .00012116  00000+0  16407-2 0  9995", "line2": "2 36385  73.9690 173.9280 0141153 350.6385   9.2157 14.72268382849565"}}, "geometry": {"type": "Point", "coordinates": [-23.262788216880075, 32.039576403114026]}}, {"type": "Feature", "properties": {"norad_id": 36420, "name": "COSMOS 2251 DEB", "group": "cosmos-2251-debris", "lat": 3.0760700230280373, "lon": 106.41459269424197, "alt_km": 782.8704067812823, "timestamp": "2025-12-06T07:31:40.633013+00:00", "meta": {"OBJECT_NAME": "COSMOS 2251 DEB", "OBJECT_ID": "1993-036AZT", "EPOCH": "2025-12-03T05:28:58.353024", "MEAN_MOTION": 14.3688527, "ECCENTRICITY": 0.0017673, "INCLINATION": 74.0372, "RA_OF_ASC_NODE": 292.9652, "ARG_OF_PERICENTER": 23.016, "MEAN_ANOMALY": 40.8577, "EPHEMERIS_TYPE": 0, "CLASSIFICATION_TYPE": "U", "NORAD_CAT_ID": 36420, "ELEMENT_SET_NO": 999, "REV_AT_EPOCH": 84900, "BSTAR": 0.00024398, "MEAN_MOTION_DOT": 6.97e-06, "MEAN_MOTION_DDOT": 0}, "tle": {"line1": "1 36420U 93036AZT 25337.22845316  .00000697  00000+0  24398-3 0  9997", "line2": "2 36420  74.0372 292.9652 0017673  23.0160  40.8577 14.36885270849007"}}, "geometry": {"type": "Point", "coordinates": [106.41459269424197, 3.0760700230280373]}}, {"type": "Feature", "properties": {"norad_id": 36430, "name": "COSMOS 2251 DEB", "group": "cosmos-2251-debris", "lat": 46.13520980069922, "lon": 137.56118968344143, "alt_km": 845.7637756623144, "timestamp": "2025-12-06T07:31:40.633023+00:00", "meta": {"OBJECT_NAME": "COSMOS 2251 DEB", "OBJECT_ID": "1993-036BAD", "EPOCH": "2025-12-02T02:24:06.345216", "MEAN_MOTION": 14.27749233, "ECCENTRICITY": 0.00972219, "INCLINATION": 74.0032, "RA_OF_ASC_NODE": 127.8413, "ARG_OF_PERICENTER": 280.0414, "MEAN_ANOMALY": 78.9776, "EPHEMERIS_TYPE": 0, "CLASSIFICATION_TYPE": "U", "NORAD_CAT_ID": 36430, "ELEMENT_SET_NO": 999, "REV_AT_EPOCH": 64405, "BSTAR": 0.00050130436, "MEAN_MOTION_DOT": 1.275e-05, "MEAN_MOTION_DDOT": 0}, "tle": {"line1": "1 36430U 93036BAD 25336.10007344  .00001275  00000+0  50130-3 0  9991", "line2": "2 36430  74.0032 127.8413 0097221 280.0414  78.9776 14.27749233644055"}}, "geometry": {"type": "Point", "coordinates": [137.56118968344143, 46.13520980069922]}}]}